{
  "type": "FeatureCollection",
  "features": [
    {
      "type": "Feature",
      "properties": {
        "norad_id": 30495,
        "name": "FENGYUN 1C DEB",
        "group": "fengyun-1c-debris",
        "lat": -63.832174200717255,
        "lon": 106.07882974506771,
        "alt_km": 905.7964814444513,
        "timestamp": "2025-12-16T13:52:37.800104+00:00",
        "meta_object_name": "FENGYUN 1C DEB",
        "meta_object_id": "1999-025AHH",
        "meta_epoch": "2025-12-14T04:42:05.842080",
        "meta_mean_motion": 12.94393656,
        "meta_eccentricity": 0.05971501,
        "meta_inclination": 102.2603,
        "meta_ra_of_asc_node": 77.1465,
        "meta_arg_of_pericenter": 263.6815,
        "meta_mean_anomaly": 89.5981,
        "meta_ephemeris_type": 0,
        "meta_classification_type": "U",
        "meta_norad_cat_id": 30495,
        "meta_element_set_no": 999,
        "meta_rev_at_epoch": 88692,
        "meta_bstar": 0.0037984689,
        "meta_mean_motion_dot": 2.324e-05,
        "meta_mean_motion_ddot": 0,
        "tle_line1": "1 30495U 99025AHH 25348.19590095  .00002324  00000+0  37985-2 0  9990",
        "tle_line2": "2 30495 102.2603  77.1465 0597150 263.6815  89.5981 12.94393656886926"
      },
      "geometry": {
        "type": "Point",
        "coordinates": [
          106.07882974506771,
          -63.832174200717255
        ]
      }
    },
    {
      "type": "Feature",
      "properties": {
        "norad_id": 30496,
        "name": "FENGYUN 1C DEB",
        "group": "fengyun-1c-debris",
        "lat": 39.30389903408741,
        "lon": -110.3995930327496,
        "alt_km": 516.7549098700392,
        "timestamp": "2025-12-16T13:52:37.800117+00:00",
        "meta_object_name": "FENGYUN 1C DEB",
        "meta_object_id": "1999-025AHJ",
        "meta_epoch": "2025-12-15T00:44:19.951872",
        "meta_mean_motion": 14.94297634,
        "meta_eccentricity": 0.01305212,
        "meta_inclination": 98.7833,
        "meta_ra_of_asc_node": 255.1418,
        "meta_arg_of_pericenter": 90.0461,
        "meta_mean_anomaly": 271.5712,
        "meta_ephemeris_type": 0,
        "meta_classification_type": "U",
        "meta_norad_cat_id": 30496,
        "meta_element_set_no": 999,
        "meta_rev_at_epoch": 1178,
        "meta_bstar": 0.00043421353,
        "meta_mean_motion_dot": 5.445e-05,
        "meta_mean_motion_ddot": 0,
        "tle_line1": "1 30496U 99025AHJ 25349.03078648  .00005445  00000+0  43421-3 0  9990",
        "tle_line2": "2 30496  98.7833 255.1418 0130521  90.0461 271.5712 14.94297634 11781"
      },
      "geometry": {
        "type": "Point",
        "coordinates": [
          -110.3995930327496,
          39.30389903408741
        ]
      }
    },
    {
      "type": "Feature",
      "properties": {
        "norad_id": 30498,
        "name": "FENGYUN 1C DEB",
        "group": "fengyun-1c-debris",
        "lat": 22.747815912855096,
        "lon": 37.867791437578155,
        "alt_km": 912.1812556788473,
        "timestamp": "2025-12-16T13:52:37.800127+00:00",
        "meta_object_name": "FENGYUN 1C DEB",
        "meta_object_id": "1999-025AHL",
        "meta_epoch": "2025-12-15T14:35:22.672320",
        "meta_mean_motion": 14.06083299,
        "meta_eccentricity": 0.01043655,
        "meta_inclination": 99.2383,
        "meta_ra_of_asc_node": 40.7912,
        "meta_arg_of_pericenter": 148.1412,
        "meta_mean_anomaly": 7.0878,
        "meta_ephemeris_type": 0,
        "meta_classification_type": "U",
        "meta_norad_cat_id": 30498,
        "meta_element_set_no": 999,
        "meta_rev_at_epoch": 95809,
        "meta_bstar": 0.0015977558,
        "meta_mean_motion_dot": 2.711e-05,
        "meta_mean_motion_ddot": 0,
        "tle_line1": "1 30498U 99025AHL 25349.60790130  .00002711  00000+0  15978-2 0  9990",
        "tle_line2": "2 30498  99.2383  40.7912 0104365 148.1412   7.0878 14.06083299958096"
      },
      "geometry": {
        "type": "Point",
        "coordinates": [
          37.867791437578155,
          22.747815912855096
        ]
      }
    },
    {
      "type": "Feature",
      "properties": {
        "norad_id": 30500,
        "name": "FENGYUN 1C DEB",
        "group": "fengyun-1c-debris",
        "lat": 31.374418911733137,
        "lon": -92.20901630686006,
        "alt_km": 771.6861035501706,
        "timestamp": "2025-12-16T13:52:37.800139+00:00",
        "meta_object_name": "FENGYUN 1C DEB",
        "meta_object_id": "1999-025AHN",
        "meta_epoch": "2025-12-15T05:25:31.932192",
        "meta_mean_motion": 14.25228099,
        "meta_eccentricity": 0.00644849,
        "meta_inclination": 99.0724,
        "meta_ra_of_asc_node": 80.802,
        "meta_arg_of_pericenter": 109.2589,
        "meta_mean_anomaly": 304.5406,
        "meta_ephemeris_type": 0,
        "meta_classification_type": "U",
        "meta_norad_cat_id": 30500,
        "meta_element_set_no": 999,
        "meta_rev_at_epoch": 96717,
        "meta_bstar": 0.0017157473,
        "meta_mean_motion_dot": 4.077e-05,
        "meta_mean_motion_ddot": 0,
        "tle_line1": "1 30500U 99025AHN 25349.22606403  .00004077  00000+0  17157-2 0  9999",
        "tle_line2": "2 30500  99.0724  80.8020 0064484 109.2589 304.5406 14.25228099967173"
      },
      "geometry": {
        "type": "Point",
        "coordinates": [
          -92.20901630686006,
          31.374418911733137
        ]
      }
    },
    {
      "type": "Feature",
      "properties": {
        "norad_id": 30501,
        "name": "FENGYUN 1C DEB",
        "group": "fengyun-1c-debris",
        "lat": 79.0065262052724,
        "lon": -143.034826358488,
        "alt_km": 802.4493393000275,
        "timestamp": "2025-12-16T13:52:37.800150+00:00",
        "meta_object_name": "FENGYUN 1C DEB",
        "meta_object_id": "1999-025AHP",
        "meta_epoch": "2025-12-15T22:34:10.033824",
        "meta_mean_motion": 14.25365563,
        "meta_eccentricity": 0.00404853,
        "meta_inclination": 99.0842,
        "meta_ra_of_asc_node": 340.8585,
        "meta_arg_of_pericenter": 193.349,
        "meta_mean_anomaly": 232.2762,
        "meta_ephemeris_type": 0,
        "meta_classification_type": "U",
        "meta_norad_cat_id": 30501,
        "meta_element_set_no": 999,
        "meta_rev_at_epoch": 96965,
        "meta_bstar": 0.001203655,
        "meta_mean_motion_dot": 2.815e-05,
        "meta_mean_motion_ddot": 0,
        "tle_line1": "1 30501U 99025AHP 25349.94039391  .00002815  00000+0  12037-2 0  9995",
        "tle_line2": "2 30501  99.0842 340.8585 0040485 193.3490 232.2762 14.25365563969655"
      },
      "geometry": {
        "type": "Point",
        "coordinates": [
          -143.034826358488,
          79.0065262052724
        ]
      }
    },
    {
      "type": "Feature",
      "properties": {
        "norad_id": 30503,
        "name": "FENGYUN 1C DEB",
        "group": "fengyun-1c-debris",
        "lat": -5.152253334262359,
        "lon": 13.387503436452693,
        "alt_km": 839.9687885000594,
        "timestamp": "2025-12-16T13:52:37.800160+00:00",
        "meta_object_name": "FENGYUN 1C DEB",
        "meta_object_id": "1999-025AHR",
        "meta_epoch": "2025-12-15T20:07:45.158304",
        "meta_mean_motion": 14.16128307,
        "meta_eccentricity": 0.00082702,
        "meta_inclination": 99.2043,
        "meta_ra_of_asc_node": 193.4614,
        "meta_arg_of_pericenter": 257.1945,
        "meta_mean_anomaly": 120.0728,
        "meta_ephemeris_type": 0,
        "meta_classification_type": "U",
        "meta_norad_cat_id": 30503,
        "meta_element_set_no": 999,
        "meta_rev_at_epoch": 97390,
        "meta_bstar": 0.00027252236,
        "meta_mean_motion_dot": 4.91e-06,
        "meta_mean_motion_ddot": 0,
        "tle_line1": "1 30503U 99025AHR 25349.83871711  .00000491  00000+0  27252-3 0  9999",
        "tle_line2": "2 30503  99.2043 193.4614 0008270 257.1945 120.0728 14.16128307973909"
      },
      "geometry": {
        "type": "Point",
        "coordinates": [
          13.387503436452693,
          -5.152253334262359
        ]
      }
    },
    {
      "type": "Feature",
      "properties": {
        "norad_id": 30504,
        "name": "FENGYUN 1C DEB",
        "group": "fengyun-1c-debris",
        "lat": 78.64176016987278,
        "lon": -90.86359513459848,
        "alt_km": 841.2442878933807,
        "timestamp": "2025-12-16T13:52:37.800171+00:00",
        "meta_object_name": "FENGYUN 1C DEB",
        "meta_object_id": "1999-025AHS",
        "meta_epoch": "2025-12-15T21:19:40.098720",
        "meta_mean_motion": 14.20501641,
        "meta_eccentricity": 0.01122999,
        "meta_inclination": 99.0251,
        "meta_ra_of_asc_node": 36.1345,
        "meta_arg_of_pericenter": 207.4556,
        "meta_mean_anomaly": 326.3803,
        "meta_ephemeris_type": 0,
        "meta_classification_type": "U",
        "meta_norad_cat_id": 30504,
        "meta_element_set_no": 999,
        "meta_rev_at_epoch": 97438,
        "meta_bstar": 0.00054566955,
        "meta_mean_motion_dot": 1.202e-05,
        "meta_mean_motion_ddot": 0,
        "tle_line1": "1 30504U 99025AHS 25349.88865855  .00001202  00000+0  54567-3 0  9997",
        "tle_line2": "2 30504  99.0251  36.1345 0112299 207.4556 326.3803 14.20501641974385"
      },
      "geometry": {
        "type": "Point",
        "coordinates": [
          -90.86359513459848,
          78.64176016987278
        ]
      }
    }
  ]
}